ORBCOMM FM33 [-]        
1 25983U 99065D   24030.02575616  .00001333  00000+0  49051-3 0  9998
2 25983  45.0277 230.4710 0008697  49.2968 115.6371 14.37241866263466
ORBCOMM FM36 [-]        
1 25984U 99065E   24030.23101008  .00001529  00000+0  57977-3 0  9995
2 25984  45.0416 313.2572 0004427 300.1419  59.8990 14.35121288261956
ORBCOMM FM35 [+]        
1 25985U 99065F   24029.89801442  .00001354  00000+0  52255-3 0  9995
2 25985  45.0415 317.1807 0003807  15.9101 344.1866 14.34768947262300
ORBCOMM FM34 [-]        
1 25986U 99065G   24029.93526361  .00001379  00000+0  53182-3 0  9992
2 25986  45.0412 317.5135 0004944 334.5875  25.4729 14.34724296262426
ORBCOMM FM38 [-]        
1 33060U 08031A   24030.57528968  .00002710  00000+0  41092-3 0  9991
2 33060  48.4397 186.6336 0004768  38.8962 321.2294 14.76839442840208
ORBCOMM FM41 [-]        
1 33061U 08031B   24030.55648266  .00002708  00000+0  41315-3 0  9999
2 33061  48.4429 193.1106 0004082  22.3455  91.4491 14.76579859839708
ORBCOMM FM29 [-]        
1 33062U 08031C   24029.59189073  .00002758  00000+0  42108-3 0  9994
2 33062  48.4379 205.6930 0005943  18.6424  94.7760 14.76481629839474
ORBCOMM FM39 [-]        
1 33063U 08031D   24030.55379792  .00002028  00000+0  32411-3 0  9998
2 33063  48.4390 220.9341 0006987 358.3515   1.7374 14.75575312839323
